{"type": "FeatureCollection", "features": [{"type": "Feature", "properties": {"norad_id": 22490, "name": "SCD 1", "group": "resource", "lat": 23.79727721373107, "lon": -18.466656015629034, "alt_km": 719.745582465106, "timestamp": "2025-12-20T03:42:47.048450+00:00", "meta": {"OBJECT_NAME": "SCD 1", "OBJECT_ID": "1993-009B", "EPOCH": "2025-12-18T10:33:14.558976", "MEAN_MOTION": 14.46002995, "ECCENTRICITY": 0.00420424, "INCLINATION": 24.9686, "RA_OF_ASC_NODE": 243.5007, "ARG_OF_PERICENTER": 25.3935, "MEAN_ANOMALY": 135.5853, "EPHEMERIS_TYPE": 0, "CLASSIFICATION_TYPE": "U", "NORAD_CAT_ID": 22490, "ELEMENT_SET_NO": 999, "REV_AT_EPOCH": 73492, "BSTAR": 7.3091886e-05, "MEAN_MOTION_DOT": 4.52e-06, "MEAN_MOTION_DDOT": 0}, "tle": {"line1": "1 22490U 93009B   25352.43975184  .00000452  00000+0  73092-4 0  9991", "line2": "2 22490  24.9686 243.5007 0042042  25.3935 135.5853 14.46002995734929"}}, "geometry": {"type": "Point", "coordinates": [-18.466656015629034, 23.79727721373107]}}, {"type": "Feature", "properties": {"norad_id": 25397, "name": "TECHSAT 1B (GO-32)", "group": "resource", "lat": 9.722029884353747, "lon": -24.016631713479715, "alt_km": 811.036227425694, "timestamp": "2025-12-20T03:42:47.048477+00:00", "meta": {"OBJECT_NAME": "TECHSAT 1B (GO-32)", "OBJECT_ID": "1998-043D", "EPOCH": "2025-12-19T05:45:01.522080", "MEAN_MOTION": 14.24378852, "ECCENTRICITY": 0.0001867, "INCLINATION": 98.9925, "RA_OF_ASC_NODE": 336.6018, "ARG_OF_PERICENTER": 47.1475, "MEAN_ANOMALY": 312.9859, "EPHEMERIS_TYPE": 0, "CLASSIFICATION_TYPE": "U", "NORAD_CAT_ID": 25397, "ELEMENT_SET_NO": 999, "REV_AT_EPOCH": 42571, "BSTAR": 4.5722e-05, "MEAN_MOTION_DOT": 5.9e-07, "MEAN_MOTION_DDOT": 0}, "tle": {"line1": "1 25397U 98043D   25353.23960095  .00000059  00000+0  45722-4 0  9999", "line2": "2 25397  98.9925 336.6018 0001867  47.1475 312.9859 14.24378852425717"}}, "geometry": {"type": "Point", "coordinates": [-24.016631713479715, 9.722029884353747]}}, {"type": "Feature", "properties": {"norad_id": 25504, "name": "SCD 2", "group": "resource", "lat": 20.661696304959246, "lon": -137.8652102617154, "alt_km": 735.8613919808467, "timestamp": "2025-12-20T03:42:47.048492+00:00", "meta": {"OBJECT_NAME": "SCD 2", "OBJECT_ID": "1998-060A", "EPOCH": "2025-12-19T16:11:25.681920", "MEAN_MOTION": 14.4542685, "ECCENTRICITY": 0.0016943, "INCLINATION": 24.9945, "RA_OF_ASC_NODE": 99.1342, "ARG_OF_PERICENTER": 26.9849, "MEAN_ANOMALY": 112.7893, "EPHEMERIS_TYPE": 0, "CLASSIFICATION_TYPE": "U", "NORAD_CAT_ID": 25504, "ELEMENT_SET_NO": 999, "REV_AT_EPOCH": 43432, "BSTAR": 4.7822e-05, "MEAN_MOTION_DOT": 3.53e-06, "MEAN_MOTION_DDOT": 0}, "tle": {"line1": "1 25504U 98060A   25353.67460280  .00000353  00000+0  47822-4 0  9997", "line2": "2 25504  24.9945  99.1342 0016943  26.9849 112.7893 14.45426850434326"}}, "geometry": {"type": "Point", "coordinates": [-137.8652102617154, 20.661696304959246]}}, {"type": "Feature", "properties": {"norad_id": 25757, "name": "DLR-TUBSAT", "group": "resource", "lat": -72.02134022654394, "lon": 130.897525367316, "alt_km": 724.1840252223965, "timestamp": "2025-12-20T03:42:47.048505+00:00", "meta": {"OBJECT_NAME": "DLR-TUBSAT", "OBJECT_ID": "1999-029B", "EPOCH": "2025-12-17T13:22:10.787520", "MEAN_MOTION": 14.52359578, "ECCENTRICITY": 0.00141996, "INCLINATION": 98.6566, "RA_OF_ASC_NODE": 336.2196, "ARG_OF_PERICENTER": 177.8976, "MEAN_ANOMALY": 182.2281, "EPHEMERIS_TYPE": 0, "CLASSIFICATION_TYPE": "U", "NORAD_CAT_ID": 25757, "ELEMENT_SET_NO": 999, "REV_AT_EPOCH": 40688, "BSTAR": 3.7650132e-05, "MEAN_MOTION_DOT": 1.05e-06, "MEAN_MOTION_DDOT": 0}, "tle": {"line1": "1 25757U 99029B   25351.55706930  .00000105  00000+0  37650-4 0  9996", "line2": "2 25757  98.6566 336.2196 0014199 177.8976 182.2281 14.52359578406886"}}, "geometry": {"type": "Point", "coordinates": [130.897525367316, -72.02134022654394]}}, {"type": "Feature", "properties": {"norad_id": 25994, "name": "TERRA", "group": "resource", "lat": -4.7099920773100585, "lon": -135.09499167345678, "alt_km": 694.48487129568, "timestamp": "2025-12-20T03:42:47.048516+00:00", "meta": {"OBJECT_NAME": "TERRA", "OBJECT_ID": "1999-068A", "EPOCH": "2025-12-19T17:28:53.309856", "MEAN_MOTION": 14.60909243, "ECCENTRICITY": 0.000355, "INCLINATION": 97.9739, "RA_OF_ASC_NODE": 45.1561, "ARG_OF_PERICENTER": 80.717, "MEAN_ANOMALY": 23.1037, "EPHEMERIS_TYPE": 0, "CLASSIFICATION_TYPE": "U", "NORAD_CAT_ID": 25994, "ELEMENT_SET_NO": 999, "REV_AT_EPOCH": 38340, "BSTAR": 7.775e-05, "MEAN_MOTION_DOT": 3.36e-06, "MEAN_MOTION_DDOT": 0}, "tle": {"line1": "1 25994U 99068A   25353.72839479  .00000336  00000+0  77750-4 0  9999", "line2": "2 25994  97.9739  45.1561 0003550  80.7170  23.1037 14.60909243383405"}}, "geometry": {"type": "Point", "coordinates": [-135.09499167345678, -4.7099920773100585]}}, {"type": "Feature", "properties": {"norad_id": 27004, "name": "MAROC-TUBSAT", "group": "resource", "lat": -77.44350221216565, "lon": -146.43932456068578, "alt_km": 994.7005696715523, "timestamp": "2025-12-20T03:42:47.048528+00:00", "meta": {"OBJECT_NAME": "MAROC-TUBSAT", "OBJECT_ID": "2001-056D", "EPOCH": "2025-12-19T10:43:52.540032", "MEAN_MOTION": 13.70253235, "ECCENTRICITY": 0.0019165, "INCLINATION": 99.7914, "RA_OF_ASC_NODE": 162.0096, "ARG_OF_PERICENTER": 242.2818, "MEAN_ANOMALY": 146.9, "EPHEMERIS_TYPE": 0, "CLASSIFICATION_TYPE": "U", "NORAD_CAT_ID": 27004, "ELEMENT_SET_NO": 999, "REV_AT_EPOCH": 20157, "BSTAR": 2.2413e-05, "MEAN_MOTION_DOT": -2.7e-07, "MEAN_MOTION_DDOT": 0}, "tle": {"line1": "1 27004U 01056D   25353.44713588 -.00000027  00000+0  22413-4 0  9998", "line2": "2 27004  99.7914 162.0096 0019165 242.2818 146.9000 13.70253235201573"}}, "geometry": {"type": "Point", "coordinates": [-146.43932456068578, -77.44350221216565]}}, {"type": "Feature", "properties": {"norad_id": 27424, "name": "AQUA", "group": "resource", "lat": 79.81335172384603, "lon": -100.21143567130979, "alt_km": 679.0419185768606, "timestamp": "2025-12-20T03:42:47.048539+00:00", "meta": {"OBJECT_NAME": "AQUA", "OBJECT_ID": "2002-022A", "EPOCH": "2025-12-19T19:17:33.406368", "MEAN_MOTION": 14.61824191, "ECCENTRICITY": 0.0001349, "INCLINATION": 98.4046, "RA_OF_ASC_NODE": 314.798, "ARG_OF_PERICENTER": 112.3467, "MEAN_ANOMALY": 286.6091, "EPHEMERIS_TYPE": 0, "CLASSIFICATION_TYPE": "U", "NORAD_CAT_ID": 27424, "ELEMENT_SET_NO": 999, "REV_AT_EPOCH": 25706, "BSTAR": 0.0001551, "MEAN_MOTION_DOT": 7.25e-06, "MEAN_MOTION_DDOT": 0}, "tle": {"line1": "1 27424U 02022A   25353.80385887  .00000725  00000+0  15510-3 0  9998", "line2": "2 27424  98.4046 314.7980 0001349 112.3467 286.6091 14.61824191257064"}}, "geometry": {"type": "Point", "coordinates": [-100.21143567130979, 79.81335172384603]}}, {"type": "Feature", "properties": {"norad_id": 28051, "name": "IRS-P6 (RESOURCESAT-1)", "group": "resource", "lat": -17.61485809483744, "lon": 36.848064473400775, "alt_km": 822.5237137839267, "timestamp": "2025-12-20T03:42:47.048550+00:00", "meta": {"OBJECT_NAME": "IRS-P6 (RESOURCESAT-1)", "OBJECT_ID": "2003-046A", "EPOCH": "2025-12-19T21:54:22.546944", "MEAN_MOTION": 14.36077103, "ECCENTRICITY": 0.0064611, "INCLINATION": 98.2172, "RA_OF_ASC_NODE": 33.9877, "ARG_OF_PERICENTER": 159.2123, "MEAN_ANOMALY": 13.022, "EPHEMERIS_TYPE": 0, "CLASSIFICATION_TYPE": "U", "NORAD_CAT_ID": 28051, "ELEMENT_SET_NO": 999, "REV_AT_EPOCH": 15479, "BSTAR": 4.4775e-07, "MEAN_MOTION_DOT": -3.9e-07, "MEAN_MOTION_DDOT": 0}, "tle": {"line1": "1 28051U 03046A   25353.91276096 -.00000039  00000+0  44775-6 0  9992", "line2": "2 28051  98.2172  33.9877 0064611 159.2123  13.0220 14.36077103154791"}}, "geometry": {"type": "Point", "coordinates": [36.848064473400775, -17.61485809483744]}}, {"type": "Feature", "properties": {"norad_id": 28220, "name": "SHIYAN-1 (SY-1)", "group": "resource", "lat": 27.13051132764964, "lon": -119.79187064129594, "alt_km": 482.7425323039379, "timestamp": "2025-12-20T03:42:47.048561+00:00", "meta": {"OBJECT_NAME": "SHIYAN-1 (SY-1)", "OBJECT_ID": "2004-012A", "EPOCH": "2025-12-19T03:28:38.259264", "MEAN_MOTION": 15.28303655, "ECCENTRICITY": 0.0005285, "INCLINATION": 97.8932, "RA_OF_ASC_NODE": 55.062, "ARG_OF_PERICENTER": 299.4151, "MEAN_ANOMALY": 60.656, "EPHEMERIS_TYPE": 0, "CLASSIFICATION_TYPE": "U", "NORAD_CAT_ID": 28220, "ELEMENT_SET_NO": 999, "REV_AT_EPOCH": 18354, "BSTAR": 0.00036633035, "MEAN_MOTION_DOT": 0.00010025, "MEAN_MOTION_DDOT": 0}, "tle": {"line1": "1 28220U 04012A   25353.14488726  .00010025  00000+0  36633-3 0  9990", "line2": "2 28220  97.8932  55.0620 0005285 299.4151  60.6560 15.28303655183545"}}, "geometry": {"type": "Point", "coordinates": [-119.79187064129594, 27.13051132764964]}}, {"type": "Feature", "properties": {"norad_id": 28376, "name": "AURA", "group": "resource", "lat": -12.495877248111581, "lon": 122.55764746445438, "alt_km": 694.700681090846, "timestamp": "2025-12-20T03:42:47.048572+00:00", "meta": {"OBJECT_NAME": "AURA", "OBJECT_ID": "2004-026A", "EPOCH": "2025-12-19T20:15:35.513856", "MEAN_MOTION": 14.60961765, "ECCENTRICITY": 0.0001357, "INCLINATION": 98.3194, "RA_OF_ASC_NODE": 304.104, "ARG_OF_PERICENTER": 92.9045, "MEAN_ANOMALY": 267.231, "EPHEMERIS_TYPE": 0, "CLASSIFICATION_TYPE": "U", "NORAD_CAT_ID": 28376, "ELEMENT_SET_NO": 999, "REV_AT_EPOCH": 14002, "BSTAR": 0.00015579, "MEAN_MOTION_DOT": 7.15e-06, "MEAN_MOTION_DDOT": 0}, "tle": {"line1": "1 28376U 04026A   25353.84416104  .00000715  00000+0  15579-3 0  9996", "line2": "2 28376  98.3194 304.1040 0001357  92.9045 267.2310 14.60961765140022"}}, "geometry": {"type": "Point", "coordinates": [122.55764746445438, -12.495877248111581]}}]}